0 FENGYUN 1C DEB
1 30163U 99025TU  13280.56773056  .00000579  00000-0  85120-3 0  5706
2 30163 098.6657 278.7353 0391301 176.6708 313.9347 13.30530935326679
0 FENGYUN 1C DEB
1 30163U 99025TU  13282.45383537  .00000666  00000-0  97152-3 0  5713
2 30163 098.6655 280.3274 0391397 171.9842 348.2149 13.30534778326928
0 FENGYUN 1C DEB
1 30163U 99025TU  13283.50518377  .00000652  00000-0  95140-3 0  5723
2 30163 098.6654 281.2149 0391417 169.3737 344.0899 13.30536236327068
0 FENGYUN 1C DEB
1 30163U 99025TU  13285.96719534  .00000657  00000-0  95794-3 0  5745
2 30163 098.6650 283.2930 0391513 163.2534 256.9621 13.30539112327395
0 FENGYUN 1C DEB
1 30163U 99025TU  13287.56025300  .00000747  00000-0  10825-2 0  5756
2 30163 098.6650 284.6375 0391547 159.2913 327.6183 13.30541826327604
0 FENGYUN 1C DEB
1 30163U 99025TU  13288.97708654  .00000751  00000-0  10880-2 0  5769
2 30163 098.6651 285.8332 0391583 155.7730 274.1813 13.30544458327799
0 FENGYUN 1C DEB
1 30163U 99025TU  13290.49860211  .00000732  00000-0  10604-2 0  5771
2 30163 098.6653 287.1172 0391639 151.9910 002.1821 13.30546909327991
0 FENGYUN 1C DEB
1 30163U 99025TU  13291.84527900  .00000772  00000-0  11162-2 0  5781
2 30163 098.6656 288.2537 0391670 148.6481 332.7228 13.30548587328170
0 FENGYUN 1C DEB
1 30163U 99025TU  13292.95449502  .00000827  00000-0  11928-2 0  5797
2 30163 098.6659 289.1896 0391696 145.8946 245.8390 13.30550089328325
0 FENGYUN 1C DEB
1 30163U 99025TU  13294.48330295  .00000801  00000-0  11558-2 0  5808
2 30163 098.6661 290.4798 0391712 142.1036 008.7940 13.30553020328520
